NORAD_CAT_ID,OBJECT_NAME,OBJECT_TYPE,EPOCH,MEAN_MOTION,ECCENTRICITY,INCLINATION,RA_OF_ASC_NODE,ARG_OF_PERICENTER,MEAN_ANOMALY,BSTAR,MEAN_MOTION_DOT,MEAN_MOTION_DDOT,TLE_LINE0,TLE_LINE1,TLE_LINE2,SEMIMAJOR_AXIS,PERIOD,APOGEE,PERIGEE,DECAYED
55961.0,STARLINK-5933,PAYLOAD,2024-02-15 03:48:02,14.98323761,0.0002723,70.001,4.2885,266.2534,93.8314,2.4e-05,1.93e-06,0.0,0 STARLINK-5933,1 55961U 23037AZ  24046.15836042  .00000193  00000-0  24000-4 0  9999,2 55961  70.0010   4.2885 0002723 266.2534  93.8314 14.98323761 51946,6950.212,96.107,573.97,570.185,0.0
55961.0,STARLINK-5933,PAYLOAD,2024-02-15 07:00:18,14.98325454,0.0002754,70.0012,3.952,268.0157,92.0686,1.1789e-05,4.8e-07,0.0,0 STARLINK-5933,1 55961U 23037AZ  24046.29188032  .00000048  00000-0  11789-4 0  9992,2 55961  70.0012   3.9520 0002754 268.0157  92.0686 14.98325454 51624,6950.207,96.107,573.986,570.158,0.0
55961.0,STARLINK-5933,PAYLOAD,2024-02-15 23:01:39,14.98326294,0.0002898,70.0013,2.2687,269.5521,90.5305,6.4024e-05,6.71e-06,0.0,0 STARLINK-5933,1 55961U 23037AZ  24046.95947918  .00000671  00000-0  64024-4 0  9993,2 55961  70.0013   2.2687 0002898 269.5521  90.5305 14.98326294 51726,6950.204,96.107,574.084,570.055,0.0
55961.0,STARLINK-5933,PAYLOAD,2024-02-16 03:50:02,14.983358,0.0002934,70.0009,1.7642,266.4144,93.6679,-1.1275e-05,-2.28e-06,0.0,0 STARLINK-5933,1 55961U 23037AZ  24047.15975541 -.00000228  00000-0 -11275-4 0  9999,2 55961  70.0009   1.7642 0002934 266.4144  93.6679 14.98335800 52096,6950.175,96.107,574.079,570.001,0.0
55961.0,STARLINK-5933,PAYLOAD,2024-02-16 07:02:18,14.98336629,0.0002907,70.001,1.4275,266.8841,93.1985,2.3277e-05,1.85e-06,0.0,0 STARLINK-5933,1 55961U 23037AZ  24047.29327364  .00000185  00000-0  23277-4 0  9993,2 55961  70.0010   1.4275 0002907 266.8841  93.1985 14.98336629 51774,6950.172,96.107,574.058,570.017,0.0
55961.0,STARLINK-5933,PAYLOAD,2024-02-16 21:27:31,14.9832743,0.0002753,70.0012,359.9126,272.4642,87.6202,6.3225e-05,6.61e-06,0.0,0 STARLINK-5933,1 55961U 23037AZ  24047.89411787  .00000661  00000-0  63225-4 0  9998,2 55961  70.0012 359.9126 0002753 272.4642  87.6202 14.98327430 51863,6950.201,96.107,573.979,570.152,0.0
55961.0,STARLINK-5933,PAYLOAD,2024-02-17 03:52:03,14.98329507,0.0002773,70.0013,359.2394,272.4415,87.6427,5.41e-05,5.53e-06,0.0,0 STARLINK-5933,1 55961U 23037AZ  24048.16115697  .00000553  00000-0  54100-4 0  9992,2 55961  70.0013 359.2394 0002773 272.4415  87.6427 14.98329507 52243,6950.194,96.107,573.987,570.132,0.0
55961.0,STARLINK-5933,PAYLOAD,2024-02-17 07:04:19,14.98334383,0.0002725,70.0015,358.9028,273.61,86.4748,0.00012357,1.382e-05,0.0,0 STARLINK-5933,1 55961U 23037AZ  24048.29467176  .00001382  00000-0  12357-3 0  9996,2 55961  70.0015 358.9028 0002725 273.6100  86.4748 14.98334383 52269,6950.179,96.107,573.938,570.15,0.0
55961.0,STARLINK-5933,PAYLOAD,2024-02-17 13:28:52,14.98328599,0.0002567,70.0022,358.2297,270.145,89.9415,7.2815e-06,-6e-08,0.0,0 STARLINK-5933,1 55961U 23037AZ  24048.56171826 -.00000006  00000-0  72815-5 0  9990,2 55961  70.0022 358.2297 0002567 270.1450  89.9415 14.98328599 51969,6950.197,96.107,573.846,570.278,0.0
55961.0,STARLINK-5933,PAYLOAD,2024-02-17 21:29:32,14.9832848,0.0002578,70.0022,357.3878,272.7349,87.3515,3.1512e-05,2.83e-06,0.0,0 STARLINK-5933,1 55961U 23037AZ  24048.89551771  .00000283  00000-0  31512-4 0  9991,2 55961  70.0022 357.3878 0002578 272.7349  87.3515 14.98328480 52010,6950.198,96.107,573.854,570.271,0.0
55961.0,STARLINK-5933,PAYLOAD,2024-02-18 13:30:52,14.98338414,0.0002727,70.0017,355.7046,271.9332,88.1514,-6.9038e-05,-9.17e-06,0.0,0 STARLINK-5933,1 55961U 23037AZ  24049.56311254 -.00000917  00000-0 -69038-4 0  9996,2 55961  70.0017 355.7046 0002727 271.9332  88.1514 14.98338414 52119,6950.167,96.106,573.927,570.137,0.0
55961.0,STARLINK-5933,PAYLOAD,2024-02-18 23:07:41,14.98331249,0.0002705,70.0017,354.695,267.1678,92.9172,-1.2105e-07,-9.4e-07,0.0,0 STARLINK-5933,1 55961U 23037AZ  24049.96367436 -.00000094  00000-0 -12105-6 0  9994,2 55961  70.0017 354.6950 0002705 267.1678  92.9172 14.98331249 52175,6950.189,96.107,573.934,570.174,0.0
55961.0,STARLINK-5933,PAYLOAD,2024-02-19 13:32:54,14.98331689,0.0002668,70.0016,353.181,270.1846,89.9008,-6.0755e-05,-8.18e-06,0.0,0 STARLINK-5933,1 55961U 23037AZ  24050.56451465 -.00000818  00000-0 -60755-4 0  9994,2 55961  70.0016 353.1810 0002668 270.1846  89.9008 14.98331689 52264,6950.188,96.107,573.907,570.198,0.0
55961.0,STARLINK-5933,PAYLOAD,2024-02-19 23:09:42,14.98326949,0.0002898,70.0017,352.1702,272.0926,87.9901,3.7374e-05,3.53e-06,0.0,0 STARLINK-5933,1 55961U 23037AZ  24050.96507411  .00000353  00000-0  37374-4 0  9994,2 55961  70.0017 352.1702 0002898 272.0926  87.9901 14.98326949 52329,6950.202,96.107,574.081,570.053,0.0
55961.0,STARLINK-5933,PAYLOAD,2024-02-20 03:58:05,14.98338389,0.0002894,70.0009,351.6648,267.6715,92.4113,8.005e-05,8.62e-06,0.0,0 STARLINK-5933,1 55961U 23037AZ  24051.16534551  .00000862  00000-0  80050-4 0  9996,2 55961  70.0009 351.6648 0002894 267.6715  92.4113 14.98338389 52692,6950.167,96.106,574.043,570.021,0.0
55961.0,STARLINK-5933,PAYLOAD,2024-02-20 13:34:54,14.98354361,0.0002709,70.0027,350.6556,270.6337,89.4512,-0.00045148,-5.479e-05,0.0,0 STARLINK-5933,1 55961U 23037AZ  24051.56590678 -.00005479  00000-0 -45148-3 0  9991,2 55961  70.0027 350.6556 0002709 270.6337  89.4512 14.98354361 52415,6950.118,96.105,573.865,570.1,0.0
55961.0,STARLINK-5933,PAYLOAD,2024-02-20 19:59:27,14.983286,0.0002484,70.0023,349.984,276.6059,83.4817,-2.5601e-05,-3.98e-06,0.0,0 STARLINK-5933,1 55961U 23037AZ  24051.83295526 -.00000398  00000-0 -25601-4 0  9993,2 55961  70.0023 349.9840 0002484 276.6059  83.4817 14.98328600 52795,6950.197,96.107,573.789,570.336,0.0
55961.0,STARLINK-5933,PAYLOAD,2024-02-20 23:11:43,14.9832688,0.00026,70.0021,349.6467,274.6167,85.4695,-3.2124e-05,-4.76e-06,0.0,0 STARLINK-5933,1 55961U 23037AZ  24051.96647617 -.00000476  00000-0 -32124-4 0  9994,2 55961  70.0021 349.6467 0002600 274.6167  85.4695 14.98326880 52472,6950.203,96.107,573.875,570.26,0.0
55961.0,STARLINK-5933,PAYLOAD,2024-02-21 13:36:56,14.98329537,0.0002453,70.0024,348.1316,278.8175,81.2706,-8.0958e-05,-1.059e-05,0.0,0 STARLINK-5933,1 55961U 23037AZ  24052.56731747 -.00001059  00000-0 -80958-4 0  9995,2 55961  70.0024 348.1316 0002453 278.8175  81.2706 14.98329537 52562,6950.194,96.107,573.764,570.354,0.0
55961.0,STARLINK-5933,PAYLOAD,2024-02-21 20:01:28,14.98326664,0.0002742,70.0021,347.4583,276.0262,84.0584,-4.1864e-06,-1.43e-06,0.0,0 STARLINK-5933,1 55961U 23037AZ  24052.83435694 -.00000143  00000-0 -41864-5 0  9994,2 55961  70.0021 347.4583 0002742 276.0262  84.0584 14.98326664 52940,6950.203,96.107,573.974,570.162,0.0
55961.0,STARLINK-5933,PAYLOAD,2024-02-21 21:37:36,14.98326791,0.0002746,70.0021,347.2897,275.3767,84.7079,-5.7386e-06,-1.61e-06,0.0,0 STARLINK-5933,1 55961U 23037AZ  24052.90111692 -.00000161  00000-0 -57386-5 0  9997,2 55961  70.0021 347.2897 0002746 275.3767  84.7079 14.98326791 52613,6950.203,96.107,573.976,570.159,0.0
55961.0,STARLINK-5933,PAYLOAD,2024-02-22 05:38:16,14.98327807,0.0002588,70.0023,346.4482,272.7613,87.325,2.1459e-05,1.63e-06,0.0,0 STARLINK-5933,1 55961U 23037AZ  24053.23491623  .00000163  00000-0  21459-4 0  9990,2 55961  70.0023 346.4482 0002588 272.7613  87.3250 14.98327807 52665,6950.2,96.107,573.863,570.266,0.0
55961.0,STARLINK-5933,PAYLOAD,2024-02-22 20:03:29,14.98329029,0.0002637,70.002,344.933,276.5101,83.5758,6.618e-05,6.97e-06,0.0,0 STARLINK-5933,1 55961U 23037AZ  24053.83575419  .00000697  00000-0  66180-4 0  9994,2 55961  70.0020 344.9330 0002637 276.5101  83.5758 14.98329029 53093,6950.196,96.107,573.894,570.228,0.0
55961.0,STARLINK-5933,PAYLOAD,2024-02-22 21:39:37,14.98328702,0.0002652,70.002,344.7645,275.5058,84.5798,6.1407e-05,6.4e-06,0.0,0 STARLINK-5933,1 55961U 23037AZ  24053.90251442  .00000640  00000-0  61407-4 0  9994,2 55961  70.0020 344.7645 0002652 275.5058  84.5798 14.98328702 52762,6950.197,96.107,573.905,570.219,0.0
55961.0,STARLINK-5933,PAYLOAD,2024-02-23 12:04:49,14.98334721,0.0002588,70.002,343.2489,272.1374,87.9489,-7.4747e-05,-9.85e-06,0.0,0 STARLINK-5933,1 55961U 23037AZ  24054.50335355 -.00000985  00000-0 -74747-4 0  9992,2 55961  70.0020 343.2489 0002588 272.1374  87.9489 14.98334721 52856,6950.178,96.107,573.842,570.245,0.0
55961.0,STARLINK-5933,PAYLOAD,2024-02-23 20:05:29,14.98333099,0.0003,70.0011,342.4066,267.6274,92.4542,5.8251e-05,6.02e-06,0.0,0 STARLINK-5933,1 55961U 23037AZ  24054.83714942  .00000602  00000-0  58251-4 0  9997,2 55961  70.0011 342.4066 0003000 267.6274  92.4542 14.98333099 53248,6950.183,96.107,574.133,569.963,0.0
55961.0,STARLINK-5933,PAYLOAD,2024-02-23 21:41:37,14.98335556,0.0002884,70.0009,342.2373,270.8207,89.2622,6.0467e-05,6.29e-06,0.0,0 STARLINK-5933,1 55961U 23037AZ  24054.90390779  .00000629  00000-0  60467-4 0  9994,2 55961  70.0009 342.2373 0002884 270.8207  89.2622 14.98335556 52911,6950.176,96.107,574.045,570.036,0.0
55961.0,STARLINK-5933,PAYLOAD,2024-02-24 04:06:09,14.98344599,0.0002808,70.0011,341.5661,265.0841,94.9997,0.00015596,1.769e-05,0.0,0 STARLINK-5933,1 55961U 23037AZ  24055.17093783  .00001769  00000-0  15596-3 0  9997,2 55961  70.0011 341.5661 0002808 265.0841  94.9997 14.98344599 53299,6950.148,96.106,573.964,570.061,0.0
55961.0,STARLINK-5933,PAYLOAD,2024-02-24 12:06:50,14.98332736,0.0002122,70.0019,340.7249,271.9686,88.123,-1.4107e-05,-2.61e-06,0.0,0 STARLINK-5933,1 55961U 23037AZ  24055.50475072 -.00000261  00000-0 -14107-4 0  9995,2 55961  70.0019 340.7249 0002122 271.9686  88.1230 14.98332736 53343,6950.184,96.107,573.524,570.575,0.0
55961.0,STARLINK-5933,PAYLOAD,2024-02-24 18:31:23,14.98324264,0.0001616,70.0043,340.0542,254.757,105.341,-2.8739e-05,-4.36e-06,0.0,0 STARLINK-5933,1 55961U 23037AZ  24055.77179670 -.00000436  00000-0 -28739-4 0  9999,2 55961  70.0043 340.0542 0001616 254.7570 105.3410 14.98324264 53380,6950.211,96.107,573.199,570.952,0.0
